{
  "type": "FeatureCollection",
  "features": [
    {
      "type": "Feature",
      "properties": {
        "norad_id": 62876,
        "name": "QZS-6 (QZSS/PRN 200)",
        "group": "gnss",
        "lat": -0.038720582211981075,
        "lon": -19.90857954055997,
        "alt_km": 35782.87484816042,
        "timestamp": "2025-12-17T10:52:54.597065+00:00",
        "meta_object_name": "QZS-6 (QZSS/PRN 200)",
        "meta_object_id": "2025-023A",
        "meta_epoch": "2025-12-16T18:55:29.078400",
        "meta_mean_motion": 1.00273633,
        "meta_eccentricity": 0.00015208,
        "meta_inclination": 0.0416,
        "meta_ra_of_asc_node": 64.978,
        "meta_arg_of_pericenter": 210.5373,
        "meta_mean_anomaly": 184.5563,
        "meta_ephemeris_type": 0,
        "meta_classification_type": "U",
        "meta_norad_cat_id": 62876,
        "meta_element_set_no": 999,
        "meta_rev_at_epoch": 313,
        "meta_bstar": 0,
        "meta_mean_motion_dot": -2.1e-06,
        "meta_mean_motion_ddot": 0,
        "tle_line1": "1 62876U 25023A   25350.78853100 -.00000210  00000+0  00000+0 0  9990",
        "tle_line2": "2 62876   0.0416  64.9780 0001520 210.5373 184.5563  1.00273633  3139"
      },
      "geometry": {
        "type": "Point",
        "coordinates": [
          -19.90857954055997,
          -0.038720582211981075
        ]
      }
    },
    {
      "type": "Feature",
      "properties": {
        "norad_id": 63130,
        "name": "COSMOS 2584 (704K)",
        "group": "gnss",
        "lat": -54.90896444561053,
        "lon": 37.414286302025786,
        "alt_km": 19131.681435569517,
        "timestamp": "2025-12-17T10:52:54.597079+00:00",
        "meta_object_name": "COSMOS 2584 (704K)",
        "meta_object_id": "2025-042A",
        "meta_epoch": "2025-12-14T17:19:43.603680",
        "meta_mean_motion": 2.13103043,
        "meta_eccentricity": 0.00076907,
        "meta_inclination": 64.977,
        "meta_ra_of_asc_node": 79.0784,
        "meta_arg_of_pericenter": 217.9412,
        "meta_mean_anomaly": 142.0178,
        "meta_ephemeris_type": 0,
        "meta_classification_type": "U",
        "meta_norad_cat_id": 63130,
        "meta_element_set_no": 999,
        "meta_rev_at_epoch": 611,
        "meta_bstar": 0,
        "meta_mean_motion_dot": -5.6e-07,
        "meta_mean_motion_ddot": 0,
        "tle_line1": "1 63130U 25042A   25348.72203245 -.00000056  00000+0  00000+0 0  9993",
        "tle_line2": "2 63130  64.9770  79.0784 0007690 217.9412 142.0178  2.13103043  6119"
      },
      "geometry": {
        "type": "Point",
        "coordinates": [
          37.414286302025786,
          -54.90896444561053
        ]
      }
    },
    {
      "type": "Feature",
      "properties": {
        "norad_id": 64202,
        "name": "GPS BIII-8  (PRN 21)",
        "group": "gnss",
        "lat": -51.83335357119273,
        "lon": -79.02119957089413,
        "alt_km": 20179.74788206003,
        "timestamp": "2025-12-17T10:52:54.597091+00:00",
        "meta_object_name": "GPS BIII-8  (PRN 21)",
        "meta_object_id": "2025-116A",
        "meta_epoch": "2025-12-14T02:46:13.653120",
        "meta_mean_motion": 2.00558299,
        "meta_eccentricity": 0.00056153,
        "meta_inclination": 55.1067,
        "meta_ra_of_asc_node": 38.5851,
        "meta_arg_of_pericenter": 308.147,
        "meta_mean_anomaly": 55.2369,
        "meta_ephemeris_type": 0,
        "meta_classification_type": "U",
        "meta_norad_cat_id": 64202,
        "meta_element_set_no": 999,
        "meta_rev_at_epoch": 416,
        "meta_bstar": 0,
        "meta_mean_motion_dot": -9.6e-07,
        "meta_mean_motion_ddot": 0,
        "tle_line1": "1 64202U 25116A   25348.11543580 -.00000096  00000+0  00000+0 0  9992",
        "tle_line2": "2 64202  55.1067  38.5851 0005615 308.1470  55.2369  2.00558299  4161"
      },
      "geometry": {
        "type": "Point",
        "coordinates": [
          -79.02119957089413,
          -51.83335357119273
        ]
      }
    },
    {
      "type": "Feature",
      "properties": {
        "norad_id": 65590,
        "name": "COSMOS 2596 (708K)",
        "group": "gnss",
        "lat": 47.02021484753155,
        "lon": -8.270974723546813,
        "alt_km": 19135.253272138794,
        "timestamp": "2025-12-17T10:52:54.597102+00:00",
        "meta_object_name": "COSMOS 2596 (708K)",
        "meta_object_id": "2025-206B",
        "meta_epoch": "2025-12-16T13:58:37.157664",
        "meta_mean_motion": 2.13100551,
        "meta_eccentricity": 0.00140491,
        "meta_inclination": 64.7424,
        "meta_ra_of_asc_node": 321.3409,
        "meta_arg_of_pericenter": 306.7915,
        "meta_mean_anomaly": 158.8114,
        "meta_ephemeris_type": 0,
        "meta_classification_type": "U",
        "meta_norad_cat_id": 65590,
        "meta_element_set_no": 999,
        "meta_rev_at_epoch": 202,
        "meta_bstar": 0,
        "meta_mean_motion_dot": -6.9e-07,
        "meta_mean_motion_ddot": 0,
        "tle_line1": "1 65590U 25206B   25350.58237451 -.00000069  00000+0  00000+0 0  9994",
        "tle_line2": "2 65590  64.7424 321.3409 0014049 306.7915 158.8114  2.13100551  2025"
      },
      "geometry": {
        "type": "Point",
        "coordinates": [
          -8.270974723546813,
          47.02021484753155
        ]
      }
    }
  ]
}